*******************************************************************************
 Revised: September 28, 2017           Jupiter                              599
 
 PHYSICAL DATA (updated 2018-Aug-15):
  Mass x10^24 (kg)      = 1898.13+-.19    Density (g/cm^3)       =   1.326
  Equat. radius (1 bar) = 71492+-4 km     Polar radius (km)      =  66854+-10
  Vol. Mean Radius (km) = 69911+-6        Flattening             =   0.06487
  Geometric Albedo      = 0.52            Rocky core mass (Mc/M) =  0.0261
  Sid. rot. period (III)= 9h 55m 29.71 s  Sid. rot. rate (rad/s) =  0.00017585 
  Mean solar day, hrs   = ~9.9259         
  GM (km^3/s^2)         = 126686534.911   GM 1-sigma (km^3/s^2)  =  +-1.5
  Equ. grav, ge (m/s^2) = 24.79           Pol. grav, gp (m/s^2)  =  28.34
  Vis. magnitude V(1,0) = -9.40
  Vis. mag. (opposition)= -2.70           Obliquity to orbit     =  3.13 deg
  Sidereal orbit period = 11.861982204 y  Sidereal orbit period  = 4332.589 d
  Mean daily motion     = 0.0831294 deg/d Mean orbit speed, km/s = 13.0697
  Atmos. temp. (1 bar)  = 165+-5 K        Escape speed, km/s    =  59.5           
  A_roche(ice)/Rp       =  2.76           Hill's sphere rad. Rp  = 740
                                 Perihelion   Aphelion     Mean
  Solar Constant (W/m^2)         56           46           51
  Maximum Planetary IR (W/m^2)   13.7         13.4         13.6
  Minimum Planetary IR (W/m^2)   13.7         13.4         13.6
*******************************************************************************
 
 
*******************************************************************************
Ephemeris / WWW_USER Fri Nov  9 15:08:26 2018 Pasadena, USA      / Horizons    
*******************************************************************************
Target body name: Jupiter (599)                   {source: jup341}
Center body name: Earth (399)                     {source: DE431mx}
Center-site name: GEOCENTRIC
*******************************************************************************
Start time      : A.D. 2000-Dec-18 00:00:00.0000 UT      
Stop  time      : A.D. 2000-Dec-20 00:00:00.0000 UT      
Step-size       : 5 minutes
*******************************************************************************
Target pole/equ : IAU_JUPITER                     {West-longitude positive}
Target radii    : 71492.0 x 71492.0 x 66854.0 km  {Equator, meridian, pole}    
Center geodetic : 0.00000000,0.00000000,0.0000000 {E-lon(deg),Lat(deg),Alt(km)}
Center cylindric: 0.00000000,0.00000000,0.0000000 {E-lon(deg),Dxy(km),Dz(km)}
Center pole/equ : High-precision EOP model        {East-longitude positive}
Center radii    : 6378.1 x 6378.1 x 6356.8 km     {Equator, meridian, pole}    
Target primary  : Sun
Vis. interferer : MOON (R_eq= 1737.400) km        {source: DE431mx}
Rel. light bend : Sun, EARTH                      {source: DE431mx}
Rel. lght bnd GM: 1.3271E+11, 3.9860E+05 km^3/s^2                              
Atmos refraction: NO (AIRLESS)
RA format       : DEG
Time format     : CAL 
EOP file        : eop.181108.p190130                                           
EOP coverage    : DATA-BASED 1962-JAN-20 TO 2018-NOV-08. PREDICTS-> 2019-JAN-29
Units conversion: 1 au= 149597870.700 km, c= 299792.458 km/s, 1 day= 86400.0 s 
Table cut-offs 1: Elevation (-90.0deg=NO ),Airmass (>38.000=NO), Daylight (NO )
Table cut-offs 2: Solar elongation (  0.0,180.0=NO ),Local Hour Angle( 0.0=NO )
Table cut-offs 3: RA/DEC angular rate (     0.0=NO )                           
**************************************************************************************************************************************
 Date__(UT)__HR:MN:SC.fff     R.A._(ICRF/J2K)_DEC Ang-diam Ob-lon Ob-lat Sl-lon Sl-lat   NP.ang   NP.dist            delta      deldot
**************************************************************************************************************************************
$$SOE
 2000-Dec-18 07:20:00.000      61.68224  20.01562 47.82206 278.98   3.51 274.57   3.34 348.9624     22.32 4.12248339238198  11.4848756
 2000-Dec-18 07:25:00.000      61.68182  20.01555 47.82179 282.00   3.51 277.60   3.34 348.9623     22.32 4.12250642564107  11.4865940
 2000-Dec-18 07:30:00.000      61.68140  20.01549 47.82152 285.02   3.51 280.62   3.34 348.9621     22.32 4.12252946234622  11.4883124
 2000-Dec-18 07:35:00.000      61.68098  20.01542 47.82125 288.05   3.51 283.64   3.34 348.9619     22.32 4.12255250249758  11.4900309
 2000-Dec-18 07:40:00.000      61.68056  20.01536 47.82099 291.07   3.51 286.66   3.34 348.9618     22.32 4.12257554609527  11.4917495
 2000-Dec-18 07:45:00.000      61.68015  20.01530 47.82072 294.09   3.51 289.69   3.34 348.9616     22.32 4.12259859313945  11.4934681
 2000-Dec-18 07:50:00.000      61.67973  20.01523 47.82045 297.12   3.51 292.71   3.34 348.9614     22.32 4.12262164363025  11.4951869
 2000-Dec-18 07:55:00.000      61.67931  20.01517 47.82019 300.14   3.51 295.73   3.34 348.9613     22.32 4.12264469756782  11.4969057
 2000-Dec-18 08:00:00.000      61.67889  20.01511 47.81992 303.16   3.51 298.75   3.34 348.9611     22.32 4.12266775495229  11.4986245
 2000-Dec-18 08:05:00.000      61.67847  20.01504 47.81965 306.18   3.51 301.77   3.34 348.9609     22.32 4.12269081578380  11.5003434
 2000-Dec-18 08:10:00.000      61.67805  20.01498 47.81938 309.21   3.51 304.80   3.34 348.9608     22.32 4.12271388006251  11.5020624
 2000-Dec-18 08:15:00.000      61.67763  20.01492 47.81912 312.23   3.51 307.82   3.34 348.9606     22.32 4.12273694778854  11.5037815
 2000-Dec-18 08:20:00.000      61.67721  20.01485 47.81885 315.25   3.51 310.84   3.34 348.9604     22.32 4.12276001896206  11.5055007
 2000-Dec-18 08:25:00.000      61.67679  20.01479 47.81858 318.28   3.51 313.86   3.34 348.9603     22.32 4.12278309358319  11.5072199
 2000-Dec-18 08:30:00.000      61.67637  20.01472 47.81831 321.30   3.51 316.89   3.34 348.9601     22.32 4.12280617165209  11.5089392
 2000-Dec-18 08:35:00.000      61.67595  20.01466 47.81804 324.32   3.51 319.91   3.34 348.9599     22.32 4.12282925316889  11.5106585
 2000-Dec-18 08:40:00.000      61.67553  20.01460 47.81778 327.34   3.51 322.93   3.34 348.9598     22.32 4.12285233813375  11.5123779
 2000-Dec-18 08:45:00.000      61.67512  20.01453 47.81751 330.37   3.51 325.95   3.34 348.9596     22.32 4.12287542654680  11.5140974
 2000-Dec-18 08:50:00.000      61.67470  20.01447 47.81724 333.39   3.51 328.97   3.34 348.9594     22.32 4.12289851840820  11.5158170
 2000-Dec-18 08:55:00.000      61.67428  20.01441 47.81697 336.41   3.51 332.00   3.34 348.9593     22.32 4.12292161371808  11.5175367
 2000-Dec-18 09:00:00.000      61.67386  20.01434 47.81671 339.44   3.51 335.02   3.34 348.9591     22.32 4.12294471247660  11.5192564
 2000-Dec-18 09:05:00.000      61.67344  20.01428 47.81644 342.46   3.51 338.04   3.34 348.9590     22.32 4.12296781468389  11.5209762
 2000-Dec-18 09:10:00.000      61.67302  20.01422 47.81617 345.48   3.51 341.06   3.34 348.9588     22.32 4.12299092034011  11.5226960
 2000-Dec-18 09:15:00.000      61.67260  20.01415 47.81590 348.51   3.51 344.09   3.34 348.9586     22.32 4.12301402944539  11.5244160
 2000-Dec-18 09:20:00.000      61.67218  20.01409 47.81563 351.53   3.51 347.11   3.34 348.9585     22.31 4.12303714199989  11.5261360
 2000-Dec-18 09:25:00.000      61.67176  20.01402 47.81537 354.55   3.51 350.13   3.34 348.9583     22.31 4.12306025800375  11.5278561
 2000-Dec-18 09:30:00.000      61.67135  20.01396 47.81510 357.57   3.51 353.15   3.34 348.9581     22.31 4.12308337745712  11.5295762
 2000-Dec-18 09:35:00.000      61.67093  20.01390 47.81483   0.60   3.51 356.18   3.34 348.9580     22.31 4.12310650036013  11.5312965
 2000-Dec-18 09:40:00.000      61.67051  20.01383 47.81456   3.62   3.51 359.20   3.34 348.9578     22.31 4.12312962671294  11.5330168
 2000-Dec-18 09:45:00.000      61.67009  20.01377 47.81429   6.64   3.51   2.22   3.34 348.9576     22.31 4.12315275651569  11.5347371
 2000-Dec-18 09:50:00.000      61.66967  20.01371 47.81402   9.67   3.51   5.24   3.34 348.9575     22.31 4.12317588976852  11.5364576
 2000-Dec-18 09:55:00.000      61.66925  20.01364 47.81376  12.69   3.51   8.26   3.34 348.9573     22.31 4.12319902647158  11.5381781
 2000-Dec-18 10:00:00.000      61.66883  20.01358 47.81349  15.71   3.51  11.29   3.34 348.9571     22.31 4.12322216662501  11.5398987
 2000-Dec-18 10:05:00.000      61.66841  20.01352 47.81322  18.74   3.51  14.31   3.34 348.9570     22.31 4.12324531022896  11.5416193
 2000-Dec-18 10:10:00.000      61.66800  20.01345 47.81295  21.76   3.51  17.33   3.34 348.9568     22.31 4.12326845728357  11.5433401
 2000-Dec-18 10:15:00.000      61.66758  20.01339 47.81268  24.78   3.51  20.35   3.34 348.9566     22.31 4.12329160778898  11.5450609
 2000-Dec-18 10:20:00.000      61.66716  20.01333 47.81241  27.80   3.51  23.38   3.34 348.9565     22.31 4.12331476174533  11.5467817
 2000-Dec-18 10:25:00.000      61.66674  20.01326 47.81215  30.83   3.51  26.40   3.34 348.9563     22.31 4.12333791915277  11.5485027
 2000-Dec-18 10:30:00.000      61.66632  20.01320 47.81188  33.85   3.51  29.42   3.34 348.9562     22.31 4.12336108001144  11.5502237
 2000-Dec-18 10:35:00.000      61.66590  20.01314 47.81161  36.87   3.51  32.44   3.34 348.9560     22.31 4.12338424432148  11.5519448
 2000-Dec-18 10:40:00.000      61.66549  20.01307 47.81134  39.90   3.51  35.46   3.34 348.9558     22.31 4.12340741208302  11.5536659
 2000-Dec-18 10:45:00.000      61.66507  20.01301 47.81107  42.92   3.51  38.49   3.34 348.9557     22.31 4.12343058329622  11.5553872
 2000-Dec-18 10:50:00.000      61.66465  20.01294 47.81080  45.94   3.51  41.51   3.34 348.9555     22.31 4.12345375796119  11.5571085
 2000-Dec-18 10:55:00.000      61.66423  20.01288 47.81053  48.97   3.51  44.53   3.34 348.9553     22.31 4.12347693607810  11.5588298
